ORBCOMM FM24 [-]        
1 25478U 98053D   23242.66759265  .00001009  00000+0  40356-3 0  9990
2 25478  45.0087 132.4909 0000119 310.3441  49.7396 14.34576998303063
ORBCOMM FM25 [-]        
1 25479U 98053E   23243.11849482  .00001021  00000+0  40777-3 0  9994
2 25479  45.0080 128.5969 0002643 212.5568 147.5116 14.34568849303429
ORBCOMM FM26 [-]        
1 25480U 98053F   23242.41404128  .00000847  00000+0  34953-3 0  9996
2 25480  45.0073 125.1220 0004955 231.8513 128.1888 14.34168743303271
ORBCOMM FM27 [+]        
1 25481U 98053G   23242.40593915  .00001063  00000+0  42288-3 0  9990
2 25481  45.0062 132.2082 0001655 357.8750   2.2090 14.34535527303254
ORBCOMM FM28 [-]        
1 25482U 98053H   23242.82449140  .00000938  00000+0  37512-3 0  9991
2 25482  45.0073  69.6201 0003380 246.0267 114.0226 14.35048246303972
ORBCOMM FM30 [-]        
1 25980U 99065A   23242.46930923  .00000744  00000+0  31239-3 0  9997
2 25980  45.0329 310.1366 0006558 306.3745  53.6497 14.34292071240071
ORBCOMM FM31 [-]        
1 25981U 99065B   23242.85604444  .00000749  00000+0  31388-3 0  9997
2 25981  45.0240 302.2237 0003367 313.3660  46.6906 14.34330431239687
ORBCOMM FM32 [+]        
1 25982U 99065C   23242.51350530  .00000720  00000+0  30992-3 0  9994
2 25982  45.0173 315.7649 0004982 329.5718  30.4839 14.33276063240290
